{
  "norad_id": 62396,
  "name": "BANDWAGON-2 OBJECT V",
  "history": [
    {
      "epoch": "2026-04-15T19:00:20.227392Z",
      "apogee_km": 430.0552647930808,
      "perigee_km": 416.95258371659656,
      "latitude_deg": -6.461854288073253e-07,
      "longitude_deg": 113.04202999053506,
      "height_km": 423.3962742535055,
      "semi_major_axis_km": 6801.640924254839,
      "eccentricity": 0.0009632,
      "inclination_deg": 44.9932,
      "raan_deg": 242.0752,
      "arg_perigee_deg": 270.9566,
      "mean_anomaly_deg": 89.0221,
      "mean_motion_rev_day": 15.47683708
    },
    {
      "epoch": "2026-04-16T15:08:34.746144Z",
      "apogee_km": 429.95461253303165,
      "perigee_km": 416.8303812158638,
      "latitude_deg": 1.1950226544109884e-06,
      "longitude_deg": 165.431526383288,
      "height_km": 422.77125518872043,
      "semi_major_axis_km": 6801.529496874447,
      "eccentricity": 0.0009648,
      "inclination_deg": 44.9935,
      "raan_deg": 237.3522,
      "arg_perigee_deg": 275.4484,
      "mean_anomaly_deg": 84.5306,
      "mean_motion_rev_day": 15.47721741
    },
    {
      "epoch": "2026-04-17T19:01:28.379712Z",
      "apogee_km": 429.76873121472545,
      "perigee_km": 416.65138122821463,
      "latitude_deg": -1.194658288007839e-05,
      "longitude_deg": 99.52308654527256,
      "height_km": 421.8335004695338,
      "semi_major_axis_km": 6801.34705622147,
      "eccentricity": 0.00096432,
      "inclination_deg": 44.9936,
      "raan_deg": 230.8123,
      "arg_perigee_deg": 282.1331,
      "mean_anomaly_deg": 77.8479,
      "mean_motion_rev_day": 15.47784016
    },
    {
      "epoch": "2026-04-18T18:15:29.911104Z",
      "apogee_km": 429.5351761996144,
      "perigee_km": 416.4960064515253,
      "latitude_deg": -3.273912167153167e-05,
      "longitude_deg": 104.6125087319985,
      "height_km": 421.02681035329385,
      "semi_major_axis_km": 6801.15259132557,
      "eccentricity": 0.0009586,
      "inclination_deg": 44.9935,
      "raan_deg": 225.3623,
      "arg_perigee_deg": 287.7803,
      "mean_anomaly_deg": 72.2041,
      "mean_motion_rev_day": 15.478504
    },
    {
      "epoch": "2026-04-19T14:23:36.057696Z",
      "apogee_km": 429.3034683578653,
      "perigee_km": 416.34763469720565,
      "latitude_deg": -3.186694542852377e-05,
      "longitude_deg": 157.03658130386611,
      "height_km": 420.3426308513967,
      "semi_major_axis_km": 6800.962551527536,
      "eccentricity": 0.0009525,
      "inclination_deg": 44.9932,
      "raan_deg": 220.6389,
      "arg_perigee_deg": 292.5584,
      "mean_anomaly_deg": 67.4298,
      "mean_motion_rev_day": 15.47915278
    },
    {
      "epoch": "2026-04-21T12:51:21.252960Z",
      "apogee_km": 428.9048838904255,
      "perigee_km": 415.9680170041711,
      "latitude_deg": 6.4966879979910815e-06,
      "longitude_deg": 167.2889524460953,
      "height_km": 418.90940059411236,
      "semi_major_axis_km": 6800.573450447298,
      "eccentricity": 0.00095116,
      "inclination_deg": 44.9929,
      "raan_deg": 209.7377,
      "arg_perigee_deg": 303.0678,
      "mean_anomaly_deg": 56.9299,
      "mean_motion_rev_day": 15.48048128
    },
    {
      "epoch": "2026-04-21T23:41:47.529024Z",
      "apogee_km": 428.7745149082848,
      "perigee_km": 415.88327973468586,
      "latitude_deg": 5.087846398457454e-05,
      "longitude_deg": 1.6900028637665974,
      "height_km": 418.61132598539257,
      "semi_major_axis_km": 6800.4658973214855,
      "eccentricity": 0.00094782,
      "inclination_deg": 44.9922,
      "raan_deg": 207.1934,
      "arg_perigee_deg": 305.2477,
      "mean_anomaly_deg": 54.7527,
      "mean_motion_rev_day": 15.48084853
    },
    {
      "epoch": "2026-04-23T12:51:46.262304Z",
      "apogee_km": 428.3903864353506,
      "perigee_km": 415.6882011326652,
      "latitude_deg": -4.7736247378411204e-05,
      "longitude_deg": 153.94601304759314,
      "height_km": 417.5671897498096,
      "semi_major_axis_km": 6800.176293784008,
      "eccentricity": 0.00093396,
      "inclination_deg": 44.9938,
      "raan_deg": 198.4706,
      "arg_perigee_deg": 314.7919,
      "mean_anomaly_deg": 45.2211,
      "mean_motion_rev_day": 15.48183748
    },
    {
      "epoch": "2026-04-24T13:38:20.649120Z",
      "apogee_km": 428.1514533744503,
      "perigee_km": 415.53477027497047,
      "latitude_deg": 5.127707633393697e-06,
      "longitude_deg": 135.46956275154372,
      "height_km": 416.98721794740004,
      "semi_major_axis_km": 6799.98011182471,
      "eccentricity": 0.0009277,
      "inclination_deg": 44.9919,
      "raan_deg": 192.6549,
      "arg_perigee_deg": 320.3626,
      "mean_anomaly_deg": 39.6586,
      "mean_motion_rev_day": 15.48250747
    },
    {
      "epoch": "2026-04-25T12:51:56.358144Z",
      "apogee_km": 427.8780842712349,
      "perigee_km": 415.3393531659176,
      "latitude_deg": -1.8247754046561363e-05,
      "longitude_deg": 140.66496949449837,
      "height_km": 416.4252104656445,
      "semi_major_axis_km": 6799.7457187185755,
      "eccentricity": 0.000922,
      "inclination_deg": 44.993,
      "raan_deg": 187.203,
      "arg_perigee_deg": 325.8052,
      "mean_anomaly_deg": 34.2244,
      "mean_motion_rev_day": 15.48330802
    },
    {
      "epoch": "2026-04-26T04:20:57.617952Z",
      "apogee_km": 427.64504179550204,
      "perigee_km": 415.2051069891604,
      "latitude_deg": 1.6911787395471905e-05,
      "longitude_deg": -95.86133693648239,
      "height_km": 416.0719507080738,
      "semi_major_axis_km": 6799.562074392331,
      "eccentricity": 0.00091476,
      "inclination_deg": 44.9932,
      "raan_deg": 183.5678,
      "arg_perigee_deg": 329.4227,
      "mean_anomaly_deg": 30.613,
      "mean_motion_rev_day": 15.48393529
    },
    {
      "epoch": "2026-04-27T20:36:15.060096Z",
      "apogee_km": 427.11784592176537,
      "perigee_km": 414.8630985657928,
      "latitude_deg": 1.6924414612318198e-05,
      "longitude_deg": 9.210480894784178,
      "height_km": 415.2511024372017,
      "semi_major_axis_km": 6799.127472243779,
      "eccentricity": 0.0009012,
      "inclination_deg": 44.9931,
      "raan_deg": 174.1155,
      "arg_perigee_deg": 339.5318,
      "mean_anomaly_deg": 20.5211,
      "mean_motion_rev_day": 15.48541992
    },
    {
      "epoch": "2026-04-28T04:20:42.286272Z",
      "apogee_km": 427.01722012642495,
      "perigee_km": 414.834523291639,
      "latitude_deg": -3.58322689424225e-05,
      "longitude_deg": -109.03872104515531,
      "height_km": 415.1494390756418,
      "semi_major_axis_km": 6799.062871709031,
      "eccentricity": 0.00089591,
      "inclination_deg": 44.9928,
      "raan_deg": 172.2977,
      "arg_perigee_deg": 341.5236,
      "mean_anomaly_deg": 18.5328,
      "mean_motion_rev_day": 15.48564062
    },
    {
      "epoch": "2026-04-29T11:18:26.717184Z",
      "apogee_km": 426.6060691855919,
      "perigee_km": 414.67054718106283,
      "latitude_deg": -1.2917519501358e-05,
      "longitude_deg": 137.98309544857162,
      "height_km": 414.76417103198526,
      "semi_major_axis_km": 6798.775308183327,
      "eccentricity": 0.00087777,
      "inclination_deg": 44.992,
      "raan_deg": 165.0262,
      "arg_perigee_deg": 349.8308,
      "mean_anomaly_deg": 10.2404,
      "mean_motion_rev_day": 15.48662311
    },
    {
      "epoch": "2026-04-30T08:58:47.640000Z",
      "apogee_km": 426.28833406450485,
      "perigee_km": 414.5749441847838,
      "latitude_deg": 2.261539343430939e-06,
      "longitude_deg": 166.91487503913888,
      "height_km": 414.59624270063205,
      "semi_major_axis_km": 6798.568639124644,
      "eccentricity": 0.00086146,
      "inclination_deg": 44.992,
      "raan_deg": 159.9352,
      "arg_perigee_deg": 355.0151,
      "mean_anomaly_deg": 5.0653,
      "mean_motion_rev_day": 15.48732928
    },
    {
      "epoch": "2026-05-02T02:46:24.807360Z",
      "apogee_km": 425.6234958862424,
      "perigee_km": 414.2734124119943,
      "latitude_deg": 4.052259706489629e-05,
      "longitude_deg": -111.52595732330954,
      "height_km": 414.29983178499776,
      "semi_major_axis_km": 6798.085454149118,
      "eccentricity": 0.0008348,
      "inclination_deg": 44.9913,
      "raan_deg": 150.1156,
      "arg_perigee_deg": 5.8021,
      "mean_anomaly_deg": 354.2966,
      "mean_motion_rev_day": 15.48898049
    },
    {
      "epoch": "2026-05-03T01:59:25.252224Z",
      "apogee_km": 425.2552965880468,
      "perigee_km": 414.1311912203173,
      "latitude_deg": 3.180569302651446e-05,
      "longitude_deg": -106.18720151266808,
      "height_km": 414.25512252247046,
      "semi_major_axis_km": 6797.830243904182,
      "eccentricity": 0.00081821,
      "inclination_deg": 44.9908,
      "raan_deg": 144.6597,
      "arg_perigee_deg": 12.3049,
      "mean_anomaly_deg": 347.8041,
      "mean_motion_rev_day": 15.48985275
    },
    {
      "epoch": "2026-05-04T07:23:47.345568Z",
      "apogee_km": 424.79014719483075,
      "perigee_km": 413.9928170032954,
      "latitude_deg": 1.9640037477773206e-05,
      "longitude_deg": 164.60215979312358,
      "height_km": 414.3254299238579,
      "semi_major_axis_km": 6797.528482099063,
      "eccentricity": 0.00079421,
      "inclination_deg": 44.9907,
      "raan_deg": 137.7488,
      "arg_perigee_deg": 20.379,
      "mean_anomaly_deg": 339.7417,
      "mean_motion_rev_day": 15.49088422
    },
    {
      "epoch": "2026-05-05T01:58:03.793440Z",
      "apogee_km": 424.472227128952,
      "perigee_km": 413.8829626141851,
      "latitude_deg": -5.759217458399237e-07,
      "longitude_deg": -119.09488944749879,
      "height_km": 414.40636569342155,
      "semi_major_axis_km": 6797.314594871568,
      "eccentricity": 0.00077893,
      "inclination_deg": 44.9906,
      "raan_deg": 133.383,
      "arg_perigee_deg": 25.847,
      "mean_anomaly_deg": 334.2809,
      "mean_motion_rev_day": 15.49161539
    }
  ]
}